CCSDS_OEM_VERS = 1.0
CREATION_DATE  = 2017-05-11T12:02:42
ORIGINATOR     = GMAT USER

META_START
OBJECT_NAME          = MOPSSat_alt_35785_km_RAAN_270_118
OBJECT_ID            = SatId
CENTER_NAME          = Earth
REF_FRAME            = EME2000
TIME_SYSTEM          = UTC
START_TIME           = 2017-01-01T00:00:00.000
USEABLE_START_TIME   = 2017-01-01T00:00:00.000
USEABLE_STOP_TIME    = 2017-01-02T00:00:00.000
STOP_TIME            = 2017-01-02T00:00:00.000
INTERPOLATION        = Lagrange
INTERPOLATION_DEGREE = 7 
META_STOP


                                                                                   

2017-01-01T00:36:40.000   9.104432957409121e+03  -2.842034974241057e+04  -7.004733702928085e-03   4.036407252628805e+00   9.833690200773273e-01  -6.520268465237842e-06
2017-01-01T00:36:50.000   9.144790192438672e+03  -2.841049474435712e+04  -7.070093134305799e-03   4.035038961784948e+00   9.876301697609025e-01  -6.551619506187067e-06
2017-01-01T00:37:00.000   9.185133716299672e+03  -2.840059714855493e+04  -7.135766119485438e-03   4.033665029127189e+00   9.918885701974915e-01  -6.582979224064140e-06
2017-01-01T00:37:10.000   9.225463473041043e+03  -2.839065698244509e+04  -7.201752745458251e-03   4.032285461910813e+00   9.961442109727336e-01  -6.614347526359308e-06
2017-01-01T00:37:20.000   9.265779406374071e+03  -2.838067427366918e+04  -7.268053097653643e-03   4.030900267428986e+00   1.000397081653682e+00  -6.645724320210316e-06
2017-01-01T00:37:30.000   9.306081460062398e+03  -2.837064904997933e+04  -7.334667260529266e-03   4.029509453000178e+00   1.004647171830187e+00  -6.677109512769341e-06
2017-01-01T00:37:40.000   9.346369577921501e+03  -2.836058133923573e+04  -7.401595317588468e-03   4.028113025967771e+00   1.008894471114810e+00  -6.708503011180731e-06
2017-01-01T00:37:50.000   9.386643703433365e+03  -2.835047116950877e+04  -7.468837350695404e-03   4.026710993714114e+00   1.013138969102425e+00  -6.739904722341572e-06
2017-01-01T00:38:00.000   9.426903780266801e+03  -2.834031856894307e+04  -7.536393440981568e-03   4.025303363641632e+00   1.017380655424948e+00  -6.771314553247532e-06
2017-01-01T00:38:10.000   9.467149752068672e+03  -2.833012356581102e+04  -7.604263668487315e-03   4.023890143180170e+00   1.021619519729414e+00  -6.802732410850627e-06
2017-01-01T00:38:20.000   9.507381563387606e+03  -2.831988618827864e+04  -7.672448113718824e-03   4.022471339754497e+00   1.025855551775313e+00  -6.834158202726870e-06
2017-01-01T00:38:30.000   9.547599158748279e+03  -2.830960646463943e+04  -7.740946856090516e-03   4.021046960816626e+00   1.030088741337121e+00  -6.865591836406384e-06
2017-01-01T00:38:40.000   9.587802482890869e+03  -2.829928442325411e+04  -7.809759974324332e-03   4.019617013837403e+00   1.034319078229572e+00  -6.897033219546031e-06
2017-01-01T00:38:50.000   9.627991480127681e+03  -2.828892009271037e+04  -7.878887545386522e-03   4.018181506328608e+00   1.038546552239859e+00  -6.928482259461346e-06
2017-01-01T00:39:00.000   9.668166094874749e+03  -2.827851350169134e+04  -7.948329645359728e-03   4.016740445824621e+00   1.042771153183756e+00  -6.959938863512113e-06
2017-01-01T00:39:10.000   9.708326271529510e+03  -2.826806467900550e+04  -8.018086349243305e-03   4.015293839886520e+00   1.046992870892749e+00  -6.991402939011937e-06
2017-01-01T00:39:20.000   9.748471954519357e+03  -2.825757365357710e+04  -8.088157731013033e-03   4.013841696100664e+00   1.051211695219284e+00  -7.022874393267145e-06
2017-01-01T00:39:30.000   9.788603088323531e+03  -2.824704045443775e+04  -8.158543863678234e-03   4.012384022077465e+00   1.055427616039025e+00  -7.054353133588114e-06
2017-01-01T00:39:40.000   9.828719617521379e+03  -2.823646511071355e+04  -8.229244819365966e-03   4.010920825449549e+00   1.059640623255972e+00  -7.085839067335018e-06
2017-01-01T00:39:50.000   9.868821486815932e+03  -2.822584765162129e+04  -8.300260669342422e-03   4.009452113871151e+00   1.063850706805051e+00  -7.117332101898503e-06
2017-01-01T00:40:00.000   9.908908641080274e+03  -2.821518810645284e+04  -8.371591484119175e-03   4.007977895015894e+00   1.068057856656926e+00  -7.148832144778965e-06
2017-01-01T00:40:10.000   9.948981025236420e+03  -2.820448650460842e+04  -8.443237333227539e-03   4.006498176581320e+00   1.072262062805371e+00  -7.180339103474170e-06
2017-01-01T00:40:20.000   9.989038584782122e+03  -2.819374287545124e+04  -8.515198286193907e-03   4.005012966268758e+00   1.076463315322431e+00  -7.211852885954689e-06
2017-01-01T00:40:30.000   1.002908126515266e+04  -2.818295724848218e+04  -8.587474411365519e-03   4.003522271807370e+00   1.080661604291650e+00  -7.243373400100501e-06
2017-01-01T00:40:40.000   1.006910901196251e+04  -2.817212965327379e+04  -8.660065776351325e-03   4.002026100944973e+00   1.084856919833420e+00  -7.274900553914266e-06
2017-01-01T00:40:50.000   1.010912177006961e+04  -2.816126011972300e+04  -8.732972446327533e-03   4.000524461482887e+00   1.089049252006932e+00  -7.306434254719233e-06
2017-01-01T00:41:00.000   1.014911948451168e+04  -2.815034867779822e+04  -8.806194485730006e-03   3.999017361240919e+00   1.093238590908374e+00  -7.337974409962421e-06
2017-01-01T00:41:10.000   1.018910210026464e+04  -2.813939535760395e+04  -8.879731957821012e-03   3.997504808066222e+00   1.097424926645631e+00  -7.369520927001308e-06
2017-01-01T00:41:20.000   1.022906956288299e+04  -2.812840018921030e+04  -8.953584925827967e-03   3.995986809809651e+00   1.101608249405527e+00  -7.401073713672684e-06
2017-01-01T00:41:30.000   1.026902181797153e+04  -2.811736320279235e+04  -9.027753452010132e-03   3.994463374344979e+00   1.105788549398390e+00  -7.432632677813181e-06
2017-01-01T00:41:40.000   1.030895881130743e+04  -2.810628442859794e+04  -9.102237597873110e-03   3.992934509564356e+00   1.109965816870912e+00  -7.464197727378954e-06
2017-01-01T00:41:50.000   1.034888048879238e+04  -2.809516389695724e+04  -9.177037424104549e-03   3.991400223379603e+00   1.114140042101075e+00  -7.495768770345816e-06
2017-01-01T00:42:00.000   1.038878679643128e+04  -2.808400163829122e+04  -9.252152990514625e-03   3.989860523723284e+00   1.118311215396042e+00  -7.527345714755295e-06
2017-01-01T00:42:10.000   1.042867768028474e+04  -2.807279768312464e+04  -9.327584355946879e-03   3.988315418550424e+00   1.122479327087214e+00  -7.558928468654397e-06
2017-01-01T00:42:20.000   1.046855308644598e+04  -2.806155206208964e+04  -9.403331578254626e-03   3.986764915838964e+00   1.126644367527781e+00  -7.590516940141554e-06
2017-01-01T00:42:30.000   1.050841296099527e+04  -2.805026480594164e+04  -9.479394714189956e-03   3.985209023591856e+00   1.130806327088087e+00  -7.622111037266943e-06
2017-01-01T00:42:40.000   1.054825725012077e+04  -2.803893594552360e+04  -9.555773819644359e-03   3.983647749832071e+00   1.134965196168245e+00  -7.653710668152077e-06
2017-01-01T00:42:50.000   1.058808589959521e+04  -2.802756551191905e+04  -9.632468948611701e-03   3.982081102623600e+00   1.139120965143690e+00  -7.685315740510723e-06
2017-01-01T00:43:00.000   1.062789885541088e+04  -2.801615353626697e+04  -9.709480154438749e-03   3.980509090045889e+00   1.143273624431344e+00  -7.716926162217433e-06
2017-01-01T00:43:10.000   1.066769606354356e+04  -2.800470004982980e+04  -9.786807489364240e-03   3.978931720203140e+00   1.147423164465051e+00  -7.748541841097490e-06
2017-01-01T00:43:20.000   1.070747747086840e+04  -2.799320508373013e+04  -9.864451006294227e-03   3.977349001187985e+00   1.151569575791119e+00  -7.780162685717670e-06
2017-01-01T00:43:30.000   1.074724302424664e+04  -2.798166866921243e+04  -9.942410757034895e-03   3.975760941117449e+00   1.155712848973094e+00  -7.811788604598536e-06
2017-01-01T00:43:40.000   1.078699267073315e+04  -2.797009083758420e+04  -1.002068679268756e-02   3.974167548124780e+00   1.159852974613466e+00  -7.843419506401946e-06
2017-01-01T00:43:50.000   1.082672635705954e+04  -2.795847162035990e+04  -1.009927916267917e-02   3.972568830379230e+00   1.163989943299660e+00  -7.875055299460533e-06
2017-01-01T00:44:00.000   1.086644403001890e+04  -2.794681104915517e+04  -1.017818791547049e-02   3.970964796071391e+00   1.168123745644346e+00  -7.906695892143601e-06
2017-01-01T00:44:10.000   1.090614563646511e+04  -2.793510915568437e+04  -1.025741309857391e-02   3.969355453412789e+00   1.172254372285316e+00  -7.938341192836046e-06
2017-01-01T00:44:20.000   1.094583112293336e+04  -2.792336597187821e+04  -1.033695475775019e-02   3.967740810651954e+00   1.176381813846235e+00  -7.969991109693166e-06
2017-01-01T00:44:30.000   1.098550043615263e+04  -2.791158152972682e+04  -1.041681293807479e-02   3.966120876052796e+00   1.180506060989789e+00  -8.001645550992985e-06
2017-01-01T00:44:40.000   1.102515352284372e+04  -2.789975586134044e+04  -1.049698768352375e-02   3.964495657902899e+00   1.184627104396764e+00  -8.033304424994606e-06
2017-01-01T00:44:50.000   1.106479033061452e+04  -2.788788899868256e+04  -1.057747903878154e-02   3.962865164476745e+00   1.188744934859118e+00  -8.064967640602585e-06
2017-01-01T00:45:00.000   1.110441080706501e+04  -2.787598097383587e+04  -1.065828704743718e-02   3.961229404072220e+00   1.192859543186971e+00  -8.096635106702105e-06
2017-01-01T00:45:10.000   1.114401489999019e+04  -2.786403181894255e+04  -1.073941175238679e-02   3.959588385002316e+00   1.196970920229759e+00  -8.128306732307374e-06
2017-01-01T00:45:20.000   1.118360255686505e+04  -2.785204156635307e+04  -1.082085319482705e-02   3.957942115615551e+00   1.201079056822579e+00  -8.159982426183058e-06
2017-01-01T00:45:30.000   1.122317372522791e+04  -2.784001024851681e+04  -1.090261141499102e-02   3.956290604280833e+00   1.205183943826235e+00  -8.191662097122096e-06
2017-01-01T00:45:40.000   1.126272835267973e+04  -2.782793789797955e+04  -1.098468645216592e-02   3.954633859387056e+00   1.209285572127100e+00  -8.223345653950453e-06
